IRIDIUM 8 [+]           
1 24792U 97020A   17255.51691599  .00000029  00000-0  32965-5 0  9998
2 24792  86.3922 282.1725 0002214  94.2502 265.8947 14.34221782 65718
IRIDIUM 7 [+]           
1 24793U 97020B   17254.74285443  .00000066  00000-0  16331-4 0  9999
2 24793  86.3928 282.7861 0002088  93.4048 266.7387 14.34226428 65379
IRIDIUM 6 [+]           
1 24794U 97020C   17254.52748142  .00000016  00000-0 -12148-5 0  9995
2 24794  86.3926 282.8037 0002271  91.8343 268.3113 14.34219442 65337
IRIDIUM 5 [+]           
1 24795U 97020D   17255.21879810 -.00000075  00000-0 -33858-4 0  9996
2 24795  86.3920 282.5326 0002173  86.1587 273.9857 14.34220858 65754
IRIDIUM 4 [-]           
1 24796U 97020E   17255.51549549  .00000152  00000-0  46372-4 0  9992
2 24796  86.3919 281.2753 0002219  92.8445  16.7619 14.35174389 65826
IRIDIUM 914 [-]         
1 24836U 97030A   17255.54532544  .00000129  00000-0  35575-4 0  9995
2 24836  86.3918 297.7958 0002719 130.7503 229.3931 14.38776118 61502
IRIDIUM 12 [+]          
1 24837U 97030B   17254.69857970  .00000168  00000-0  53034-4 0  9997
2 24837  86.3954 313.9284 0001708  92.4385  19.8892 14.34223690 59069
IRIDIUM 10 [+]          
1 24839U 97030D   17255.29754465  .00000237  00000-0  77461-4 0  9998
2 24839  86.3961 313.6591 0002211  95.8332 292.4977 14.34217363 59441
IRIDIUM 13 [+]          
1 24840U 97030E   17254.68319265  .00000158  00000-0  49357-4 0  9992
2 24840  86.3971 314.0402 0002572  74.8309 285.3171 14.34225248 59371
IRIDIUM 16 [-]          
1 24841U 97030F   17255.53801073  .00000149  00000-0  43741-4 0  9992
2 24841  86.4043 313.4362 0003162  45.6162 314.5294 14.36733954 60126
IRIDIUM 911 [-]         
1 24842U 97030G   17254.67132003  .00000156  00000-0  38911-4 0  9998
2 24842  86.4473 314.5321 0015386 156.1400 204.0518 14.44978957 65440
IRIDIUM 15 [+]          
1 24869U 97034A   17255.39140549  .00000226  00000-0  67195-4 0  9999
2 24869  86.4229 345.5981 0002673  92.2155 267.9349 14.38618555 56477
IRIDIUM 17 [-]          
1 24870U 97034B   17255.35563747  .00000133  00000-0  39229-4 0  9990
2 24870  86.4007 343.6539 0000730  44.2693 315.8562 14.35773288 56682
IRIDIUM 920 [-]         
1 24871U 97034C   17254.84775205  .00000127  00000-0  34303-4 0  9999
2 24871  86.4004 329.8467 0013577  61.2119 299.0441 14.39485580 58557
IRIDIUM 18 [+]          
1 24872U 97034D   17254.75906974  .00000223  00000-0  66472-4 0  9998
2 24872  86.4254 345.8827 0002819  89.5975 270.5546 14.38618101 56333
IRIDIUM 921 [-]         
1 24873U 97034E   17254.84192760  .00002486  00000-0  14473-3 0  9995
2 24873  86.3954  25.0063 0009817  65.6817 294.5445 15.11503742100907
IRIDIUM 26 [-]          
1 24903U 97043A   17254.95724387  .00000135  00000-0  40294-4 0  9997
2 24903  86.3979 218.4546 0002366  83.4330 276.7136 14.35271408 49943
IRIDIUM 25 [+]          
1 24904U 97043B   17255.49115857  .00000140  00000-0  42796-4 0  9999
2 24904  86.3972 218.9147 0002409  84.0192 276.1278 14.34219340 50343
IRIDIUM 46 [+]          
1 24905U 97043C   17255.43403976  .00000017  00000-0 -91580-6 0  9997
2 24905  86.3983 218.9271 0002781  78.8552 281.2957 14.34215018 50336
IRIDIUM 23 [+]          
1 24906U 97043D   17255.52327860  .00000107  00000-0  31176-4 0  9997
2 24906  86.3985 218.9644 0002451  86.7427  46.4027 14.34214866 50357
IRIDIUM 22 [+]          
1 24907U 97043E   17255.47210148  .00000082  00000-0  22181-4 0  9990
2 24907  86.3982 219.6020 0002328  85.9707 274.1755 14.34215479 50344
DUMMY MASS 1 [-]        
1 24925U 97048A   17254.83077644  .00000145  00000-0  13576-4 0  9994
2 24925  86.3395   3.4601 0009420  94.8360 265.3940 14.85145161 84442
DUMMY MASS 2 [-]        
1 24926U 97048B   17254.81539834  .00000136  00000-0  12679-4 0  9990
2 24926  86.3394   4.5967 0010178 101.1978 259.0391 14.84913148 84041
IRIDIUM 29 [-]          
1 24944U 97051A   17254.94990742  .00000143  00000-0  43492-4 0  9992
2 24944  86.3927 250.5640 0002259  95.4199 264.7255 14.34618973 46655
IRIDIUM 32 [+]          
1 24945U 97051B   17255.43105099 -.00000006  00000-0 -92958-5 0  9993
2 24945  86.3925 250.6029 0002263  87.9810 272.1645 14.34219366 46926
IRIDIUM 33 [-]          
1 24946U 97051C   17255.50351440  .00000124  00000-0  37892-4 0  9999
2 24946  86.3842 250.1639 0006670 333.7058  26.3798 14.33566660 46546
IRIDIUM 28 [-]          
1 24948U 97051E   17254.90811479  .00000135  00000-0  40170-4 0  9992
2 24948  86.3932 249.7615 0002291  81.3708 278.7748 14.35566597 46953
IRIDIUM 30 [-]          
1 24949U 97051F   17255.50222792  .00795057 -12222-5  78839-3 0  9995
2 24949  86.3805 247.4927 0256773 211.8309 146.7229 15.70075439 47349
IRIDIUM 31 [+]          
1 24950U 97051G   17255.50179174  .00000018  00000-0 -54266-6 0  9995
2 24950  86.4188 250.6697 0002663  87.6319 272.5184 14.38607113 46927
IRIDIUM 19 [+]          
1 24965U 97056A   17255.47253006 -.00000013  00000-0 -11847-4 0  9991
2 24965  86.3925 282.2028 0002133  89.5162 270.6278 14.34219970 45062
IRIDIUM 35 [+]          
1 24966U 97056B   17255.48521510  .00000014  00000-0 -20542-5 0  9994
2 24966  86.3923 282.1906 0002159  89.5649 270.5794 14.34220271 45049
IRIDIUM 36 [-]          
1 24967U 97056C   17254.63096645  .00000118  00000-0  34249-4 0  9999
2 24967  86.3934 281.5369 0002059  93.4873 266.6559 14.35618361 45261
IRIDIUM 37 [+]          
1 24968U 97056D   17254.62261876  .00000018  00000-0 -69834-6 0  9999
2 24968  86.3928 282.7407 0002129  90.2821 269.8619 14.34220526 44719
IRIDIUM 34 [+]          
1 24969U 97056E   17255.47886773  .00000010  00000-0 -34736-5 0  9997
2 24969  86.3926 282.3193 0002107  89.2946 270.8491 14.34220310 45046
IRIDIUM 43 [-]          
1 25039U 97069A   17255.46657539  .00139206  31707-5  67933-3 0  9990
2 25039  86.4020 336.7418 0258476  69.4834 293.3958 15.47273659 40045
IRIDIUM 41 [+]          
1 25040U 97069B   17255.39083296  .00000222  00000-0  72118-4 0  9991
2 25040  86.4005 345.5103 0002311  92.1114 268.0347 14.34222576 38818
IRIDIUM 40 [-]          
1 25041U 97069C   17255.52288915  .00036506 -73526-6  31749-3 0  9990
2 25041  86.3885 334.6548 0251737 306.2343  51.5872 15.37706158 40343
IRIDIUM 39 [B]          
1 25042U 97069D   17255.33728908  .00000184  00000-0  45676-4 0  9999
2 25042  86.3963 342.0353 0019870  29.3304 330.9010 14.46178715 39312
IRIDIUM 38 [-]          
1 25043U 97069E   17255.39039530  .00000136  00000-0  39873-4 0  9991
2 25043  86.4006 342.5852 0002450  58.1526 301.9909 14.36047304 39248
IRIDIUM 42 [-]          
1 25077U 97077A   17255.38136667  .00000103  00000-0  29562-4 0  9993
2 25077  86.4013 345.4508 0002125  79.9498 280.1938 14.34518491 34693
IRIDIUM 44 [-]          
1 25078U 97077B   17255.32766175  .00000149  00000-0  42561-4 0  9995
2 25078  86.3998 334.8338 0002280  46.3897 313.7490 14.38143203 36160
IRIDIUM 45 [+]          
1 25104U 97082A   17255.48182420  .00000011  00000-0 -29643-5 0  9999
2 25104  86.3923 250.7047 0002714  66.4258 293.7222 14.34218369 32884
IRIDIUM 24 [-]          
1 25105U 97082B   17255.39843442  .00000231  00000-0  67241-4 0  9996
2 25105  86.3962 198.6328 0013602  62.2116 298.0460 14.39873658 35401
IRIDIUM 47 [+]          
1 25106U 97082C   17255.44039650  .00000098  00000-0  27986-4 0  9994
2 25106  86.3969 218.8044 0002448  87.6379 272.5097 14.34215808 32870
IRIDIUM 49 [+]          
1 25108U 97082E   17255.48009549  .00000096  00000-0  27115-4 0  9996
2 25108  86.3972 218.8928 0002391  85.7311  53.7423 14.34215342 32885
IRIDIUM 52 [+]          
1 25169U 98010A   17255.55211600  .00000017  00000-0 -94450-6 0  9998
2 25169  86.3966 313.8748 0002164  95.5057 264.6386 14.34217813 24309
IRIDIUM 56 [+]          
1 25170U 98010B   17255.54577681  .00000190  00000-0  60842-4 0  9990
2 25170  86.3974 313.9922 0002209  87.0798 273.0651 14.34216553 24289
IRIDIUM 54 [+]          
1 25171U 98010C   17255.29847749  .00000169  00000-0  53413-4 0  9990
2 25171  86.3967 314.0021 0002195  95.1257 265.0189 14.34228688 24412
IRIDIUM 50 [+]          
1 25172U 98010D   17255.19058652  .00000161  00000-0  50439-4 0  9994
2 25172  86.3966 314.0032 0002212  97.6916 262.4531 14.34225513 24239
IRIDIUM 53 [+]          
1 25173U 98010E   17255.27946770  .00000160  00000-0  50043-4 0  9991
2 25173  86.3967 313.9726 0002184  94.6419 265.5027 14.34228623 24253
IRIDIUM 51 [S]          
1 25262U 98018A   17255.51057520  .00000031  00000-0  39392-5 0  9993
2 25262  86.3924 282.5368 0002744  97.7326 262.4182 14.34221144 23675
IRIDIUM 61 [+]          
1 25263U 98018B   17255.46618358  .00000017  00000-0 -10598-5 0  9992
2 25263  86.3927 282.3530 0002170  89.9289 270.2156 14.34220348 19377
IRIDIUM 55 [+]          
1 25272U 98019A   17255.43858363  .00000006  00000-0 -44628-5 0  9991
2 25272  86.4181 250.5076 0002647  89.8021 270.3481 14.38597060 18579
IRIDIUM 57 [-]          
1 25273U 98019B   17255.50261754  .00000137  00000-0  41774-4 0  9994
2 25273  86.3930 250.7960 0002186  93.4581 266.6864 14.34276476 18580
IRIDIUM 58 [+]          
1 25274U 98019C   17255.44479544 -.00000023  00000-0 -14172-4 0  9994
2 25274  86.4180 251.0146 0002551  90.3538 269.7953 14.38602803 18576
IRIDIUM 59 [+]          
1 25275U 98019D   17255.52622418  .00000019  00000-0 -30360-6 0  9997
2 25275  86.3925 250.8307 0002307  92.8654 267.2806 14.34218945 18581
IRIDIUM 60 [+]          
1 25276U 98019E   17255.46281808  .00000006  00000-0 -47821-5 0  9990
2 25276  86.3922 250.4733 0002210  85.7462 274.3986 14.34218185 18572
IRIDIUM 62 [+]          
1 25285U 98021A   17255.35457155  .00000019  00000-0 -36162-6 0  9992
2 25285  86.4016 187.4836 0002340  80.5242 279.6218 14.34220138 17513
IRIDIUM 63 [-]          
1 25286U 98021B   17255.56158764  .00000164  00000-0  51151-4 0  9993
2 25286  86.4045 187.8111 0002272  88.9116  30.8572 14.34680848 17576
